[{"OBJECT_NAME":"PERUSAT 1","OBJECT_ID":"2016-058A","EPOCH":"2026-03-09T23:16:32.302848","MEAN_MOTION":14.58548827,"ECCENTRICITY":0.00012113,"INCLINATION":98.2091,"RA_OF_ASC_NODE":143.8668,"ARG_OF_PERICENTER":91.7691,"MEAN_ANOMALY":268.3647,"EPHEMERIS_TYPE":0,"CLASSIFICATION_TYPE":"U","NORAD_CAT_ID":41770,"ELEMENT_SET_NO":999,"REV_AT_EPOCH":50463,"BSTAR":7.1568116e-5,"MEAN_MOTION_DOT":2.87e-6,"MEAN_MOTION_DDOT":0},{"OBJECT_NAME":"CZ-6A DEB","OBJECT_ID":"2022-151FU","EPOCH":"2026-03-09T17:17:57.537312","MEAN_MOTION":14.49965774,"ECCENTRICITY":0.01133801,"INCLINATION":98.7289,"RA_OF_ASC_NODE":129.7183,"ARG_OF_PERICENTER":180.9315,"MEAN_ANOMALY":179.1684,"EPHEMERIS_TYPE":0,"CLASSIFICATION_TYPE":"U","NORAD_CAT_ID":54444,"ELEMENT_SET_NO":999,"REV_AT_EPOCH":17457,"BSTAR":0.00073623027,"MEAN_MOTION_DOT":3.042e-5,"MEAN_MOTION_DDOT":0}]
